{
  "type": "FeatureCollection",
  "features": [
    {
      "type": "Feature",
      "properties": {
        "OBJECT_NAME": "BEIDOU-3 G4 (C62)",
        "OBJECT_ID": "2023-066A",
        "EPOCH": "2025-11-29T19:46:13.101600",
        "MEAN_MOTION": 1.00271417,
        "ECCENTRICITY": 0.0003499,
        "INCLINATION": 0.8456,
        "RA_OF_ASC_NODE": 300.9169,
        "ARG_OF_PERICENTER": 231.3595,
        "MEAN_ANOMALY": 353.3186,
        "EPHEMERIS_TYPE": 0,
        "CLASSIFICATION_TYPE": "U",
        "NORAD_CAT_ID": 56564,
        "ELEMENT_SET_NO": 999,
        "REV_AT_EPOCH": 939,
        "BSTAR": 0,
        "MEAN_MOTION_DOT": -9e-07,
        "MEAN_MOTION_DDOT": 0,
        "norad_id": 56564,
        "name": "BEIDOU-3 G4 (C62)",
        "group": "beidou",
        "longitude_deg": NaN,
        "latitude_deg": NaN,
        "alt_km": NaN,
        "orbit_class": "HEO",
        "timestamp": "2025-11-30T06:54:03.108837+00:00"
      },
      "geometry": {
        "type": "Point",
        "coordinates": [
          NaN,
          NaN
        ]
      }
    },
    {
      "type": "Feature",
      "properties": {
        "OBJECT_NAME": "BEIDOU-3 M28 (C50)",
        "OBJECT_ID": "2023-207A",
        "EPOCH": "2025-11-27T22:33:52.745184",
        "MEAN_MOTION": 1.86229668,
        "ECCENTRICITY": 0.00018154,
        "INCLINATION": 55.5716,
        "RA_OF_ASC_NODE": 69.1028,
        "ARG_OF_PERICENTER": 262.146,
        "MEAN_ANOMALY": 97.8458,
        "EPHEMERIS_TYPE": 0,
        "CLASSIFICATION_TYPE": "U",
        "NORAD_CAT_ID": 58654,
        "ELEMENT_SET_NO": 999,
        "REV_AT_EPOCH": 1309,
        "BSTAR": 0,
        "MEAN_MOTION_DOT": -1.9e-07,
        "MEAN_MOTION_DDOT": 0,
        "norad_id": 58654,
        "name": "BEIDOU-3 M28 (C50)",
        "group": "beidou",
        "longitude_deg": NaN,
        "latitude_deg": NaN,
        "alt_km": NaN,
        "orbit_class": "HEO",
        "timestamp": "2025-11-30T06:54:03.117525+00:00"
      },
      "geometry": {
        "type": "Point",
        "coordinates": [
          NaN,
          NaN
        ]
      }
    },
    {
      "type": "Feature",
      "properties": {
        "OBJECT_NAME": "BEIDOU-3 M26 (C48)",
        "OBJECT_ID": "2023-207B",
        "EPOCH": "2025-11-28T06:35:52.080576",
        "MEAN_MOTION": 1.86231153,
        "ECCENTRICITY": 0.00033196,
        "INCLINATION": 55.574,
        "RA_OF_ASC_NODE": 69.0776,
        "ARG_OF_PERICENTER": 248.7827,
        "MEAN_ANOMALY": 111.1937,
        "EPHEMERIS_TYPE": 0,
        "CLASSIFICATION_TYPE": "U",
        "NORAD_CAT_ID": 58655,
        "ELEMENT_SET_NO": 999,
        "REV_AT_EPOCH": 1308,
        "BSTAR": 0,
        "MEAN_MOTION_DOT": -2e-07,
        "MEAN_MOTION_DDOT": 0,
        "norad_id": 58655,
        "name": "BEIDOU-3 M26 (C48)",
        "group": "beidou",
        "longitude_deg": NaN,
        "latitude_deg": NaN,
        "alt_km": NaN,
        "orbit_class": "HEO",
        "timestamp": "2025-11-30T06:54:03.117532+00:00"
      },
      "geometry": {
        "type": "Point",
        "coordinates": [
          NaN,
          NaN
        ]
      }
    },
    {
      "type": "Feature",
      "properties": {
        "OBJECT_NAME": "BEIDOU-3 M25 (C47)",
        "OBJECT_ID": "2024-168B",
        "EPOCH": "2025-11-29T05:11:27.449088",
        "MEAN_MOTION": 1.86229924,
        "ECCENTRICITY": 0.00055836,
        "INCLINATION": 54.6546,
        "RA_OF_ASC_NODE": 309.1896,
        "ARG_OF_PERICENTER": 293.0881,
        "MEAN_ANOMALY": 94.9901,
        "EPHEMERIS_TYPE": 0,
        "CLASSIFICATION_TYPE": "U",
        "NORAD_CAT_ID": 61186,
        "ELEMENT_SET_NO": 999,
        "REV_AT_EPOCH": 806,
        "BSTAR": 0,
        "MEAN_MOTION_DOT": -4.6e-07,
        "MEAN_MOTION_DDOT": 0,
        "norad_id": 61186,
        "name": "BEIDOU-3 M25 (C47)",
        "group": "beidou",
        "longitude_deg": NaN,
        "latitude_deg": NaN,
        "alt_km": NaN,
        "orbit_class": "HEO",
        "timestamp": "2025-11-30T06:54:03.128561+00:00"
      },
      "geometry": {
        "type": "Point",
        "coordinates": [
          NaN,
          NaN
        ]
      }
    },
    {
      "type": "Feature",
      "properties": {
        "OBJECT_NAME": "BEIDOU-3 M27 (C49)",
        "OBJECT_ID": "2024-168C",
        "EPOCH": "2025-11-26T13:19:53.060736",
        "MEAN_MOTION": 1.86230231,
        "ECCENTRICITY": 0.00022893,
        "INCLINATION": 54.6526,
        "RA_OF_ASC_NODE": 309.2656,
        "ARG_OF_PERICENTER": 325.5656,
        "MEAN_ANOMALY": 213.5122,
        "EPHEMERIS_TYPE": 0,
        "CLASSIFICATION_TYPE": "U",
        "NORAD_CAT_ID": 61187,
        "ELEMENT_SET_NO": 999,
        "REV_AT_EPOCH": 548,
        "BSTAR": 0,
        "MEAN_MOTION_DOT": -4.1e-07,
        "MEAN_MOTION_DDOT": 0,
        "norad_id": 61187,
        "name": "BEIDOU-3 M27 (C49)",
        "group": "beidou",
        "longitude_deg": NaN,
        "latitude_deg": NaN,
        "alt_km": NaN,
        "orbit_class": "HEO",
        "timestamp": "2025-11-30T06:54:03.128567+00:00"
      },
      "geometry": {
        "type": "Point",
        "coordinates": [
          NaN,
          NaN
        ]
      }
    }
  ]
}