BEIDOU-3 G4 (C62)       
1 56564U 23066A   25333.82376275 -.00000090  00000+0  00000+0 0  9997
2 56564   0.8456 300.9169 0003499 231.3595 353.3186  1.00271417  9395
BEIDOU-3 M28 (C50)      
1 58654U 23207A   25331.94019381 -.00000019  00000+0  00000+0 0  9990
2 58654  55.5716  69.1028 0001815 262.1460  97.8458  1.86229668 13093
BEIDOU-3 M26 (C48)      
1 58655U 23207B   25332.27490834 -.00000020  00000+0  00000+0 0  9996
2 58655  55.5740  69.0776 0003319 248.7827 111.1937  1.86231153 13081
BEIDOU-3 M25 (C47)      
1 61186U 24168B   25333.21628992 -.00000046  00000+0  00000+0 0  9997
2 61186  54.6546 309.1896 0005583 293.0881  94.9901  1.86229924  8061
BEIDOU-3 M27 (C49)      
1 61187U 24168C   25330.55547524 -.00000041  00000+0  00000+0 0  9998
2 61187  54.6526 309.2656 0002289 325.5656 213.5122  1.86230231  5486
